LANDSAT 8               
1 39084U 13008A   21119.14086904  .00000078  00000-0  27217-4 0  9990
2 39084  98.1861 190.2772 0001261  89.3795 270.7548 14.57123251436667
SARAL                   
1 39086U 13009A   21118.85245282 -.00000003  00000-0  14988-4 0  9996
2 39086  98.5464 305.6446 0001948  71.1916 288.9479 14.32050193427142
GAOFEN 1                
1 39150U 13018A   21119.11287111  .00000099  00000-0  21282-4 0  9994
2 39150  97.8334 193.3439 0018926 174.0834 186.0614 14.76566700431599
VNREDSAT 1              
1 39160U 13021B   21119.09812949  .00000096  00000-0  27788-4 0  9993
2 39160  98.1150 197.1502 0001302  93.4960 266.6396 14.62970958426031
ARIRANG-5 (KOMPSAT-5)   
1 39227U 13042A   21119.11836999  .00000107  00000-0  11974-4 0  9997
2 39227  97.6283 305.0826 0002261  77.1344  62.4530 15.04511554421986
YAOGAN 18               
1 39363U 13059A   21096.91111731  .15831590  24738-5  19630-3 0  9997
2 39363  97.1692 169.0587 0011679 256.3710 104.3251 16.49197280414219
SKYSAT-1                
1 39418U 13066C   21118.47537410  .00000258  00000-0  25966-4 0  9992
2 39418  97.5909 196.6318 0021438 216.8648 143.1103 14.99132007406473
DUBAISAT-2              
1 39419U 13066D   21119.06949213  .00000076  00000-0  12092-4 0  9991
2 39419  97.4960 165.8801 0012473 225.7568 134.2655 14.94294004405309
GPM-CORE                
1 39574U 14009C   21119.10464913  .00003516  00000-0  54454-4 0  9995
2 39574  65.0037 157.9868 0010599 279.2513  80.7434 15.55969846407160
SENTINEL-1A             
1 39634U 14016A   21119.07612195  .00000027  00000-0  15336-4 0  9993
2 39634  98.1819 127.5404 0001433  80.1707 279.9664 14.59199026376599
KAZEOSAT 1              
1 39731U 14024A   21119.09386779  .00000011  00000-0  16875-4 0  9990
2 39731  98.5043 192.0132 0001210  83.1970 276.9361 14.41971261368371
ALOS-2                  
1 39766U 14029A   21119.15366389 -.00000600  00000-0 -73488-4 0  9994
2 39766  97.9189 217.2206 0001554  74.6623 285.4869 14.79465560374372
KAZEOSAT 2              
1 40010U 14033A   21119.10927593  .00000002  00000-0  68113-5 0  9992
2 40010  97.7738  12.5453 0015662 358.8204   1.2994 14.82057156371070
HODOYOSHI-4             
1 40011U 14033B   21119.13628860  .00000174  00000-0  28761-4 0  9995
2 40011  97.7361   3.1281 0026923 355.2119   4.8836 14.81302491370758
DEIMOS-2                
1 40013U 14033D   21119.10266639  .00000237  00000-0  34047-4 0  9990
2 40013  97.7954  21.0907 0002537  59.3967 300.7512 14.84812176371704
HODOYOSHI-3             
1 40015U 14033F   21118.87839993  .00000106  00000-0  21148-4 0  9997
2 40015  97.6944 347.3483 0037372  15.7958 344.4410 14.78663422370047
SPOT 7                  
1 40053U 14034A   21119.21284800  .00000013  00000-0  12756-4 0  9992
2 40053  98.2205 187.2009 0001172  77.8732 282.2613 14.58541392363707
SKYSAT-2                
1 40072U 14037D   21118.54108994  .00000154  00000-0  27235-4 0  9994
2 40072  98.4571 320.2758 0005940 195.3162 164.7870 14.81400012367810
WORLDVIEW-3 (WV-3)      
1 40115U 14048A   21119.20822302 -.00010126  00000-0 -11820-2 0  9997
2 40115  97.8463 194.8788 0001940  65.0262 294.8571 14.85041186363668
GAOFEN 2                
1 40118U 14049A   21119.11828371  .00000162  00000-0  27715-4 0  9992
2 40118  97.8055 194.6723 0006617 214.2889 145.7903 14.80679788361788
YAOGAN 21               
1 40143U 14053A   21118.79440785 -.00021612  00000-0 -90423-3 0  9997
2 40143  97.3979 188.0796 0014378 234.2673 234.6598 15.23469244369417
YAOGAN 22               
1 40275U 14063A   21119.21326379 -.00000027  00000-0  47166-4 0  9997
2 40275 100.5212 236.5988 0007005 105.2420 254.9467 13.15428093313288
ASNARO                  
1 40298U 14070A   21119.16852439  .00001968  00000-0  95537-4 0  9994
2 40298  97.3920 201.4043 0001374  93.7565 349.7740 15.19635597359281
HODOYOSHI-1             
1 40299U 14070B   21119.07957998  .00001470  00000-0  62251-4 0  9996
2 40299  97.2883 193.9926 0013477 155.3523 289.0699 15.24640475359893
QSAT-EOS                
1 40301U 14070D   21119.17931576  .00004513  00000-0  16388-3 0  9995
2 40301  97.2568 192.0536 0025276 145.1757 267.3547 15.28502076360138
YAOGAN 23               
1 40305U 14071A   21119.19008784  .00001319  00000-0  66720-4 0  9995
2 40305  97.5596  63.8078 0002305  95.3983  16.0228 15.18805430357643
YAOGAN 24               
1 40310U 14072A   21119.10691103 -.00001920  00000-0 -26933-3 0  9997
2 40310  97.9296 240.8492 0018833 168.3155 191.8617 14.76236865347109
CBERS 4                 
1 40336U 14079A   21119.15636681 -.00000006  00000-0  13215-4 0  9990
2 40336  98.5235 193.8023 0000728 100.8134 259.3143 14.35430059334977
RESURS P2               
1 40360U 14087A   21119.20333138  .00001584  00000-0  50143-4 0  9995
2 40360  97.2280 207.7111 0010990 128.5003 315.8561 15.34178698354711
YAOGAN 26               
1 40362U 14088A   21118.46672090  .00001794  00000-0  77700-4 0  9999
2 40362  97.2032 180.9977 0011116  98.9374  26.5058 15.23596218352830
SMAP                    
1 40376U 15003A   21118.87408484  .00000066  00000-0  21764-4 0  9991
2 40376  98.1252 126.7682 0001856  91.7755 268.3660 14.63372377333356
KOMPSAT-3A              
1 40536U 15014A   21119.17738899  .00001134  00000-0  69443-4 0  9994
2 40536  97.5767  61.4926 0003476 131.9874 340.2177 15.12212428336433
SENTINEL-2A             
1 40697U 15028A   21119.20748281  .00000009  00000-0  19931-4 0  9994
2 40697  98.5704 194.8914 0001304  88.6745 271.4588 14.30813876305614
GAOFEN 8                
1 40701U 15030A   21119.19760713  .00001448  00000-0  63812-4 0  9990
2 40701  97.5079 247.1150 0009538 116.1909   4.3342 15.23418589325319
CARBONITE 1 (CBNT-1)    
1 40718U 15032D   21119.20383674  .00000245  00000-0  43759-4 0  9991
2 40718  97.7961 355.2612 0015276 274.8414  85.1055 14.74948573312356
YAOGAN 27               
1 40878U 15040A   21119.19537246 -.00000021  00000-0  58662-4 0  9993
2 40878 100.1830 162.4846 0008066 213.1204 146.9407 13.15968750272542
GAOFEN 9-01             
1 40894U 15047A   21119.07427870  .00000138  00000-0  27031-4 0  9990
2 40894  97.8575 196.5119 0034660 108.6776 251.8207 14.76323646303041
LAPAN-A2                
1 40931U 15052B   21118.69897544  .00000731  00000-0  12718-4 0  9999
2 40931   5.9981 247.2044 0012682  55.7626 304.3720 14.76673359301930
YAOGAN 28               
1 41026U 15064A   21119.20546620  .00001657  00000-0  72347-4 0  9994
2 41026  97.4952 255.7857 0002553  74.8892  47.1815 15.23552888305161
YAOGAN 29               
1 41038U 15069A   21119.20552153  .00000060  00000-0  14762-4 0  9994
2 41038  98.0368 113.1371 0001148  50.3321 309.7995 14.80500031292992
KENT RIDGE 1            
1 41167U 15077B   21118.99777707  .00001126  00000-0  28442-4 0  9999
2 41167  14.9809 347.3599 0011192  46.3065  97.2897 15.09331155296529
TELEOS 1                
1 41169U 15077D   21118.21035364  .00001798  00000-0  65615-4 0  9990
2 41169  14.9766 332.3622 0010204  71.3868 288.7591 15.11007278296590
GAOFEN 4                
1 41194U 15083A   21118.33617484 -.00000339  00000-0  00000+0 0  9990
2 41194   0.0737 288.9592 0006728 233.5750 280.7872  1.00272060 19685
JASON-3                 
1 41240U 16002A   21118.85739736 -.00000078  00000-0 -74435-4 0  9995
2 41240  66.0415  70.0298 0008054 274.0547  85.9547 12.80930288246839
SENTINEL-3A             
1 41335U 16011A   21119.15409822  .00000018  00000-0  25635-4 0  9994
2 41335  98.6280 187.3977 0001084  84.4525 275.6779 14.26735518270693
SENTINEL-1B             
1 41456U 16025A   21119.04135305  .00000031  00000-0  16355-4 0  9997
2 41456  98.1819 127.3317 0001443  80.7565 279.3810 14.59198798266752
ZIYUAN 3-2 (ZY 3-2)     
1 41556U 16033A   21119.22058392  .00001315  00000-0  61692-4 0  9997
2 41556  97.3279 192.7878 0003845  38.0494  46.6067 15.21363367272928
NUSAT-1 (FRESCO)        
1 41557U 16033B   21119.24801713  .00003275  00000-0  11772-3 0  9993
2 41557  97.3918 213.4742 0014389  54.1496 330.6424 15.29270229274013
NUSAT-2 (BATATA)        
1 41558U 16033C   21119.25097759  .00003238  00000-0  10922-3 0  9997
2 41558  97.4013 217.0696 0013196  49.4261 337.3331 15.31363437274198
CARTOSAT-2C             
1 41599U 16040A   21119.11848124  .00000904  00000-0  46023-4 0  9994
2 41599  97.4038 179.4449 0013665 183.1591 230.9498 15.19253510269024
SKYSAT-C1               
1 41601U 16040C   21118.77581228  .00002743  00000-0  73613-4 0  9996
2 41601  97.1927 197.1527 0004097  98.3157 261.8553 15.38793732270180
LAPAN-A3                
1 41603U 16040E   21119.21787446  .00000310  00000-0  17403-4 0  9991
2 41603  97.2619 168.0048 0013520 168.2228 278.7902 15.20009637269103
BIROS                   
1 41604U 16040F   21118.45124807  .00001036  00000-0  47558-4 0  9993
2 41604  97.2679 172.5469 0012982 150.1489 210.0491 15.22503876269295
GAOFEN 3                
1 41727U 16049A   21119.14267004 -.00000019  00000-0  74623-5 0  9997
2 41727  98.4115 128.3319 0001956  90.9234 269.2187 14.42216807248370
SKYSAT-C4               
1 41771U 16058B   21119.11414385  .00002571  00000-0  68574-4 0  9990
2 41771  97.1691 189.0602 0001311  76.2587 283.8805 15.39046209257199
SKYSAT-C5               
1 41772U 16058C   21119.12282941  .00001152  00000-0  49746-4 0  9997
2 41772  97.3161 188.2273 0001493  96.8816 263.2592 15.24471429256625
SKYSAT-C2               
1 41773U 16058D   21119.15393902  .00002593  00000-0  69239-4 0  9990
2 41773  97.1698 189.4393 0001094  81.2183 278.9187 15.38997251257228
SKYSAT-C3               
1 41774U 16058E   21118.84207635  .00002665  00000-0  71010-4 0  9993
2 41774  97.1694 189.0860 0001788  66.2811 293.8623 15.39039636257160
ALSAT 1B                
1 41785U 16059C   21119.10394349  .00000028  00000-0  14395-4 0  9999
2 41785  97.9652 171.3107 0032166  40.1922 320.1660 14.63396487245067
PATHFINDER 1            
1 41787U 16059E   21119.20323496  .00000109  00000-0  29636-4 0  9991
2 41787  97.9688 172.8197 0031457  37.0174 323.3184 14.63804206245136
